<?xml version="1.0" encoding="UTF-8"?>
<gpx version="1.1" creator="test-fixture" xmlns="http://www.topografix.com/GPX/1/1">
  <trk>
    <name>og-block-no-bracket-vetoed</name>
    <trkseg>
      <!-- Block contains ALL non-anchor points. Spine is empty (all in block).
           No prevAnchor and no nextAnchor found → overlapStatus='no-bracket'.
           Expected: annotation 'overlap_bracket_missing'. Proposal vetoed. -->
      <trkpt lat="47.0050" lon="8.0000"><ele>505</ele><time>2024-01-01T10:05:00Z</time></trkpt>
      <trkpt lat="47.0010" lon="8.0000"><ele>501</ele><time>2024-01-01T10:01:00Z</time></trkpt>
      <trkpt lat="47.0020" lon="8.0000"><ele>502</ele><time>2024-01-01T10:02:00Z</time></trkpt>
      <trkpt lat="47.0030" lon="8.0000"><ele>503</ele><time>2024-01-01T10:03:00Z</time></trkpt>
    </trkseg>
  </trk>
</gpx>
