<?xml version="1.0" encoding="UTF-8"?>
<gpx version="1.1" creator="test-fixture" xmlns="http://www.topografix.com/GPX/1/1">
  <trk>
    <name>od-adjacent-exact-both-oob-ele</name>
    <trkseg>
      <!-- Point 0 (prev): ele = 12000 (> validEleCeilingM=9500) → OOB.
           Point 1 (curr): same time+lat+lon, ele = 15000 → OOB.
           Elevation table: both OOB → drop curr; survivor's ele SET TO NULL.
           Expected: point 1 dropped, point 0.ele mutated to null.
           Edge case: both OOB triggering survivor-ele-null mutation. -->
      <trkpt lat="47.0000" lon="8.0000"><ele>12000</ele><time>2024-01-01T10:00:00Z</time></trkpt>
      <trkpt lat="47.0000" lon="8.0000"><ele>15000</ele><time>2024-01-01T10:00:00Z</time></trkpt>
      <trkpt lat="47.0010" lon="8.0010"><ele>501</ele><time>2024-01-01T10:01:00Z</time></trkpt>
    </trkseg>
  </trk>
</gpx>
