<?xml version="1.0" encoding="UTF-8"?>
<gpx version="1.1" creator="test-fixture" xmlns="http://www.topografix.com/GPX/1/1">
  <trk>
    <name>bc-duplicate-chunk</name>
    <trkseg>
      <!-- Segment 0: times 10:00–10:30. -->
      <trkpt lat="47.0000" lon="8.0000"><ele>500</ele><time>2024-01-01T10:00:00Z</time></trkpt>
      <trkpt lat="47.0010" lon="8.0000"><ele>501</ele><time>2024-01-01T10:15:00Z</time></trkpt>
      <trkpt lat="47.0020" lon="8.0000"><ele>502</ele><time>2024-01-01T10:30:00Z</time></trkpt>
    </trkseg>
    <trkseg>
      <!-- Segment 1: times 10:10–10:20. Overlaps with segment 0's time range.
           lastT(seg0) = 10:30, firstT(seg1) = 10:10 → firstT < lastT → backward jump.
           deltaHours ≈ 0.33h. nearestWhole = 0 → NOT timezone_discontinuity (nearestWhole < 1).
           seg0.min=10:00, seg0.max=10:30; seg1.min=10:10, seg1.max=10:20.
           Overlap check: nextMin(10:10) < currMax(10:30) AND nextMax(10:20) > currMin(10:00) → overlaps.
           Expected: classification = 'duplicate_chunk'. -->
      <trkpt lat="47.1000" lon="8.1000"><ele>510</ele><time>2024-01-01T10:10:00Z</time></trkpt>
      <trkpt lat="47.1010" lon="8.1000"><ele>511</ele><time>2024-01-01T10:15:00Z</time></trkpt>
      <trkpt lat="47.1020" lon="8.1000"><ele>512</ele><time>2024-01-01T10:20:00Z</time></trkpt>
    </trkseg>
  </trk>
</gpx>
