<?xml version="1.0" encoding="UTF-8"?>
<gpx version="1.1" creator="test-fixture" xmlns="http://www.topografix.com/GPX/1/1">
  <trk>
    <name>bc-timezone-discontinuity-5h</name>
    <trkseg>
      <!-- Segment 0: ends at 15:00 UTC. -->
      <trkpt lat="47.0000" lon="8.0000"><ele>500</ele><time>2024-01-01T14:50:00Z</time></trkpt>
      <trkpt lat="47.0010" lon="8.0000"><ele>501</ele><time>2024-01-01T14:55:00Z</time></trkpt>
      <trkpt lat="47.0020" lon="8.0000"><ele>502</ele><time>2024-01-01T15:00:00Z</time></trkpt>
    </trkseg>
    <trkseg>
      <!-- Segment 1: starts at 10:03 UTC.
           deltaHours = (15:00 - 10:03) = 4h 57min ≈ 4.95h.
           nearestWhole = 5. |4.95 - 5| = 0.05 < tzTol(0.1) → timezone_discontinuity.
           suspectedTimezoneOffsetHours = 5.
           Expected: classification = 'timestamp_discontinuity', suspectedTimezoneOffsetHours = 5. -->
      <trkpt lat="47.1000" lon="8.1000"><ele>510</ele><time>2024-01-01T10:03:00Z</time></trkpt>
      <trkpt lat="47.1010" lon="8.1000"><ele>511</ele><time>2024-01-01T10:08:00Z</time></trkpt>
      <trkpt lat="47.1020" lon="8.1000"><ele>512</ele><time>2024-01-01T10:13:00Z</time></trkpt>
    </trkseg>
  </trk>
</gpx>
