<?xml version="1.0" encoding="UTF-8"?>
<gpx version="1.1" creator="test-fixture" xmlns="http://www.topografix.com/GPX/1/1">
  <trk>
    <name>kg-insert-length2-advisory-all-fail-lowest-score-wins</name>
    <trkseg>
      <!-- Competition insert with 2 candidates, BOTH fail kinematic guard (> 80 kph).
           ADVISORY: all-fail fallback → lowest score (lowest sum of squared speeds) wins.
           prevAnchor: (47.0000, 8.0000) T+0.
           Candidate A: (47.0090, 8.0000) T+30s — 1 km in 30s = 120 kph. score=120^2=14400.
           Candidate B: (47.0180, 8.0000) T+30s — 2 km in 30s = 240 kph. score=240^2=57600.
           Both fail. allFailed=true. Winner = candidate A (lowest score=14400).
           Expected: proposal.applied=true, winner=candidate A's gpxIndex.
           Annotation 'insert_competition_kinematic_guard_failed' with allFailed=true.
           Losers → excludedFromTrust 'insert_competition_loser'. -->
      <trkpt lat="47.0000" lon="8.0000"><ele>500</ele><time>2024-01-01T10:00:00Z</time></trkpt>
      <!-- shared next anchor -->
      <trkpt lat="47.0200" lon="8.0000"><ele>510</ele><time>2024-01-01T10:01:00Z</time></trkpt>
      <!-- Candidate A: 1 km away at T+30s (120 kph) -->
      <trkpt lat="47.0090" lon="8.0000"><ele>505</ele><time>2024-01-01T10:00:30Z</time></trkpt>
      <!-- Candidate B: 2 km away at T+30s (240 kph) -->
      <trkpt lat="47.0180" lon="8.0000"><ele>506</ele><time>2024-01-01T10:00:30Z</time></trkpt>
      <trkpt lat="47.0220" lon="8.0000"><ele>512</ele><time>2024-01-01T10:01:30Z</time></trkpt>
    </trkseg>
  </trk>
</gpx>
