<?xml version="1.0" encoding="UTF-8"?>
<gpx version="1.1" creator="test-fixture" xmlns="http://www.topografix.com/GPX/1/1">
  <trk>
    <name>dp-adjacent-exact-intra-segment</name>
    <trkseg>
      <!-- Two consecutive traversal-adjacent points with same time+lat+lon+ele within same segment.
           buildDuplicateProposals A1: isExactDuplicate(prev, curr)=true → adjacent-exact-drop proposal.
           Expected: one 'adjacent-exact-drop' proposal with keepGpxIndex=0, dropGpxIndex=1. -->
      <trkpt lat="47.0000" lon="8.0000"><ele>500</ele><time>2024-01-01T10:00:00Z</time></trkpt>
      <trkpt lat="47.0000" lon="8.0000"><ele>500</ele><time>2024-01-01T10:00:00Z</time></trkpt>
      <trkpt lat="47.0010" lon="8.0010"><ele>501</ele><time>2024-01-01T10:01:00Z</time></trkpt>
      <trkpt lat="47.0020" lon="8.0020"><ele>502</ele><time>2024-01-01T10:02:00Z</time></trkpt>
    </trkseg>
  </trk>
</gpx>
