<?xml version="1.0" encoding="UTF-8"?>
<gpx version="1.1" creator="test-fixture" xmlns="http://www.topografix.com/GPX/1/1">
  <trk>
    <name>bp-three-point-run-single-block</name>
    <trkseg>
      <!-- Stream: T+0, T+240(anchor), T+60, T+120, T+180, T+300.
           Points at T+60, T+120, T+180 are all belowAnchor (below anchor T+240).
           They are consecutive in the traversal → one block of size 3.
           Block time range: [T+60, T+180]. Internally monotonic (60<120<180).
           hasInternalMonotonicityViolation = false.
           Expected: exactly ONE block-finding proposal with gpxIndexes=[2,3,4] (the 3 belowAnchor points). -->
      <trkpt lat="47.0000" lon="8.0000"><ele>500</ele><time>2024-01-01T10:00:00Z</time></trkpt>
      <trkpt lat="47.0040" lon="8.0000"><ele>504</ele><time>2024-01-01T10:04:00Z</time></trkpt>
      <trkpt lat="47.0010" lon="8.0000"><ele>501</ele><time>2024-01-01T10:01:00Z</time></trkpt>
      <trkpt lat="47.0020" lon="8.0000"><ele>502</ele><time>2024-01-01T10:02:00Z</time></trkpt>
      <trkpt lat="47.0030" lon="8.0000"><ele>503</ele><time>2024-01-01T10:03:00Z</time></trkpt>
      <trkpt lat="47.0050" lon="8.0000"><ele>505</ele><time>2024-01-01T10:05:00Z</time></trkpt>
    </trkseg>
  </trk>
</gpx>
