<?xml version="1.0" encoding="UTF-8"?>
<gpx version="1.1" creator="test-fixture" xmlns="http://www.topografix.com/GPX/1/1">
  <trk>
    <name>sp-block-member-not-proposed-as-singleton</name>
    <trkseg>
      <!-- Stream: T+0, T+240(anchor), T+60, T+120, T+180, T+300.
           belowAnchor: T+60, T+120, T+180 (consecutive run → one block of 3).
           block-proposal claims gpxIndexes [2,3,4].
           singleton-proposal receives blockMemberSet={2,3,4}.
           Expected: buildSingletonProposals emits NO proposals (all belowAnchors are in block).
           This tests the `if (blockSet.has(pt.gpxIndex)) continue` guard. -->
      <trkpt lat="47.0000" lon="8.0000"><ele>500</ele><time>2024-01-01T10:00:00Z</time></trkpt>
      <trkpt lat="47.0040" lon="8.0000"><ele>504</ele><time>2024-01-01T10:04:00Z</time></trkpt>
      <trkpt lat="47.0010" lon="8.0000"><ele>501</ele><time>2024-01-01T10:01:00Z</time></trkpt>
      <trkpt lat="47.0020" lon="8.0000"><ele>502</ele><time>2024-01-01T10:02:00Z</time></trkpt>
      <trkpt lat="47.0030" lon="8.0000"><ele>503</ele><time>2024-01-01T10:03:00Z</time></trkpt>
      <trkpt lat="47.0050" lon="8.0000"><ele>505</ele><time>2024-01-01T10:05:00Z</time></trkpt>
    </trkseg>
  </trk>
</gpx>
