<?xml version="1.0" encoding="UTF-8"?>
<gpx version="1.1" creator="test-fixture" xmlns="http://www.topografix.com/GPX/1/1">
  <trk>
    <name>sp-no-next-anchor-at-segment-end</name>
    <trkseg>
      <!-- Stream: T+0, T+120(anchor), T+60(belowAnchor, last point).
           The singleton (T+60) is the LAST point in the segment.
           Walking right finds no point with usable timeMs in same segment → nextAnchor=null.
           prevAnchor: T+0 (or T+120 actually — the nearest left with usable time is T+120).
           Wait: prevAnchor walks LEFT from singleton position. Left neighbor in traversal is T+120.
           T+120 > 0 and has usable time → prevAnchor = point at T+120.
           Expected: insert proposal with tPrev=T+120, tNext=null, bracketGpxIndexes=[1].
           isEdgeProposal=true (targetTimeMs=T+60 <= envelMin=T+0 is false; but at lastEdge since
           no next anchor / could be treated as edge). -->
      <trkpt lat="47.0000" lon="8.0000"><ele>500</ele><time>2024-01-01T10:00:00Z</time></trkpt>
      <trkpt lat="47.0020" lon="8.0000"><ele>502</ele><time>2024-01-01T10:02:00Z</time></trkpt>
      <trkpt lat="47.0010" lon="8.0000"><ele>501</ele><time>2024-01-01T10:01:00Z</time></trkpt>
    </trkseg>
  </trk>
</gpx>
