<?xml version="1.0" encoding="UTF-8"?>
<gpx version="1.1" creator="test-fixture" xmlns="http://www.topografix.com/GPX/1/1">
  <trk>
    <name>def-boundary-gap-annotation-only</name>
    <trkseg>
      <!-- Segment 0: ends 10:05 UTC, same day as seg 1. -->
      <trkpt lat="47.0000" lon="8.0000"><ele>500</ele><time>2024-01-01T10:00:00Z</time></trkpt>
      <trkpt lat="47.0010" lon="8.0000"><ele>501</ele><time>2024-01-01T10:05:00Z</time></trkpt>
    </trkseg>
    <trkseg>
      <!-- Segment 1: starts 10:35, 30-min gap from seg 0 (isBoundaryGap=true, same_day).
           Step 4 in applyDeterministicExportFixes: flag-only annotation 'segment_boundary_gap'.
           Expected: annotation 'segment_boundary_gap' on seg 1, gapMs=1800000 (30min).
           No drops, no reorders. -->
      <trkpt lat="47.1000" lon="8.1000"><ele>510</ele><time>2024-01-01T10:35:00Z</time></trkpt>
      <trkpt lat="47.1010" lon="8.1000"><ele>511</ele><time>2024-01-01T10:40:00Z</time></trkpt>
    </trkseg>
  </trk>
</gpx>
