<?xml version="1.0" encoding="UTF-8"?>
<gpx version="1.1" creator="test-fixture" xmlns="http://www.topografix.com/GPX/1/1">
  <trk>
    <name>pc-coverage-just-below-threshold</name>
    <trkseg>
      <!-- 4 consecutive pairs, 3 positive, 1 backward (Δt < 0).
           coverageRatio = 3 / 4 = 0.75 < 0.8 → timestamp-sparse.
           NOT fully-reversed (not all pairs are negative).
           Tests the case just below the threshold.
           Seq: T, T+60, T+120, T+180, T+90 (backward)
           Pairs: (0,60)+, (60,120)+, (120,180)+, (180,90)- → positiveTimeDeltaCount=3, pairs=4 -->
      <trkpt lat="47.0000" lon="8.0000"><ele>500</ele><time>2024-01-01T10:00:00Z</time></trkpt>
      <trkpt lat="47.0010" lon="8.0000"><ele>501</ele><time>2024-01-01T10:01:00Z</time></trkpt>
      <trkpt lat="47.0020" lon="8.0000"><ele>502</ele><time>2024-01-01T10:02:00Z</time></trkpt>
      <trkpt lat="47.0030" lon="8.0000"><ele>503</ele><time>2024-01-01T10:03:00Z</time></trkpt>
      <trkpt lat="47.0040" lon="8.0000"><ele>504</ele><time>2024-01-01T10:01:30Z</time></trkpt>
    </trkseg>
  </trk>
</gpx>
