<?xml version="1.0" encoding="UTF-8"?>
<gpx version="1.1" creator="test-fixture" xmlns="http://www.topografix.com/GPX/1/1">
  <trk>
    <name>pc-full-participation</name>
    <trkseg>
      <!-- All 5 consecutive pairs have strictly positive Δt.
           coverageRatio = 5 / 5 = 1.0 >= 0.8.
           hasAnyPositiveTimeDelta = true, isFullyReversed = false.
           Expected: mode = 'full', no reason string. -->
      <trkpt lat="47.0000" lon="8.0000"><ele>500</ele><time>2024-01-01T10:00:00Z</time></trkpt>
      <trkpt lat="47.0010" lon="8.0000"><ele>501</ele><time>2024-01-01T10:01:00Z</time></trkpt>
      <trkpt lat="47.0020" lon="8.0000"><ele>502</ele><time>2024-01-01T10:02:00Z</time></trkpt>
      <trkpt lat="47.0030" lon="8.0000"><ele>503</ele><time>2024-01-01T10:03:00Z</time></trkpt>
      <trkpt lat="47.0040" lon="8.0000"><ele>504</ele><time>2024-01-01T10:04:00Z</time></trkpt>
      <trkpt lat="47.0050" lon="8.0000"><ele>505</ele><time>2024-01-01T10:05:00Z</time></trkpt>
    </trkseg>
  </trk>
</gpx>
